STARLINK-31812          
1 59800U 24093U   26068.42330934 -.00002089  00000+0 -66400-4 0  9990
2 59800  43.0000 210.4852 0001443 270.2523  89.8163 15.27577257102721
KUIPER-00204            
1 67145U 25301N   26068.39760395  .00020516  00000+0  79568-3 0  9999
2 67145  51.8870  71.6415 0003071 354.8934   5.2016 15.26088400 13737
